satname,norad_id,inclination_deg,eccentricity,mean_motion_rev_per_day,perigee_km,apogee_km,l1,l2
STARLINK-1008,44714,53.1572,0.0001796,15.31784251,469.25884568586116,471.718872094375,1 44714U 19074B   26079.40977111  .00008660  00000+0  28976-3 0  9999,2 44714  53.1572 128.8684 0001796  75.4900 284.6301 15.31784251350515
STARLINK-1012,44718,53.1602,0.0002337,15.31123085,470.8593042026687,474.06127337544785,1 44718U 19074F   26079.85242276  .00038447  00000+0  12668-2 0  9995,2 44718  53.1602 126.9241 0002337  53.6756 306.4460 15.31123085350577
STARLINK-1017,44723,53.0517,0.0002719,15.25101232,488.6138929903709,492.34904771454876,1 44723U 19074L   26079.49018045  .00031313  00000+0  12429-2 0  9996,2 44723  53.0517 121.5900 0002719  54.2403 305.8847 15.25101232350610
STARLINK-1019,44724,53.0405,1.61e-05,15.8422044,318.4128719106784,318.6285042882355,1 44724U 19074M   26079.41037404  .00113823  00000+0  48960-3 0  9996,2 44724  53.0405  82.6764 0000161  27.9356 332.1675 15.84220440351144
STARLINK-1020,44725,53.1614,0.0001777,15.30411901,473.36471598750086,475.8001724779806,1 44725U 19074N   26079.57601561  .00031262  00000+0  10563-2 0  9998,2 44725  53.1614 153.2790 0001777  85.6170 274.5033 15.30411901350175
STARLINK-1031,44736,53.0359,0.0004594,15.96527376,281.001290762214,287.1225191160729,1 44736U 19074Z   26079.91668981  .00296480  46280-4  69207-3 0  9997,2 44736  53.0359  62.5496 0004594  59.5700 245.2794 15.96527376  6012
STARLINK-1036,44741,53.0486,0.0004869,15.5804351,390.0229039208398,396.61694867566985,1 44741U 19074AE  26079.39612451  .00067657  00000+0  88392-3 0  9999,2 44741  53.0486 136.6286 0004869 344.3350  15.7510 15.58043510350390
STARLINK-1039,44744,53.0537,0.0001367,15.22659297,496.88317329520123,498.7630607912015,1 44744U 19074AH  26079.51425263  .00038605  00000+0  16426-2 0  9998,2 44744  53.0537 165.3014 0001367 239.5152 120.5710 15.22659297350004
STARLINK-1042,44747,53.045,0.0001849,15.50350377,414.44609678530014,416.9584585501825,1 44747U 19074AL  26079.61412344  .00023951  00000+0  42163-3 0  9994,2 44747  53.0450  42.3546 0001849 122.8943 237.2244 15.50350377351762
STARLINK-1043,44748,53.051,0.0002365,15.54362719,402.4017827230655,405.6097362483015,1 44748U 19074AM  26079.59062311  .00026004  00000+0  39586-3 0  9994,2 44748  53.0510 141.8730 0002365  79.2692 280.8584 15.54362719350341
STARLINK-1046,44751,53.0527,0.000286,15.44803126,430.0089220889022,433.9042956331705,1 44751U 19074AQ  26079.48370068  .00046248  00000+0  97495-3 0  9992,2 44751  53.0527 159.5133 0002860 225.2148 134.8625 15.44803126350081
STARLINK-1047,44752,53.0684,0.0001583,15.32788538,466.4133767133453,468.58070445059366,1 44752U 19074AR  26079.32074780  .00007759  00000+0  25287-3 0  9992,2 44752  53.0684  96.3334 0001583 265.1421  94.9399 15.32788538350973
STARLINK-1048,44753,53.0505,0.0002051,15.55390139,399.6283756555649,402.4091853567288,1 44753U 19074AS  26079.38684914  .00069519  00000+0  10022-2 0  9997,2 44753  53.0505 117.1672 0002051  32.0620 328.0514 15.55390139350663
STARLINK-1053,44758,53.0257,0.0006074,15.99758959,271.04575812197345,279.1280945476856,1 44758U 19074AX  26079.91668981  .00390152  75691-4  75746-3 0  9995,2 44758  53.0257  25.7428 0006074 124.2408  41.7011 15.99758959  5958
STARLINK-1063,44768,53.1582,0.0001941,15.30936148,471.68813581097584,474.34775416061984,1 44768U 19074BH  26079.65782632  .00083346  00000+0  27318-2 0  9999,2 44768  53.1582 168.4274 0001941  48.4444 311.6724 15.30936148349998
STARLINK-1067,44771,53.0501,0.0005372,15.59082294,386.6757945276495,393.9478159239834,1 44771U 19074BL  26079.46847163  .00077029  00000+0  96564-3 0  9994,2 44771  53.0501 151.7962 0005372   9.5082 350.6030 15.59082294350191
STARLINK-1068,44772,53.0456,0.0004242,15.6538274,369.2747623090754,375.00169581341106,1 44772U 19074BM  26079.60837877  .00045176  00000+0  44754-3 0  9994,2 44772  53.0456 126.3210 0004242 346.7940  13.2963 15.65382740350552
STARLINK-1114,44927,53.0483,0.0006806,15.52170787,405.76902101301494,415.0095630016949,1 44927U 20001P   26079.82454311  .00081012  00000+0  13085-2 0  9991,2 44927  53.0483 275.8292 0006806 162.6177 197.5066 15.52170787341821
STARLINK-1123,44930,53.1468,6.77e-05,15.29096372,478.0480903324751,478.9764806457297,1 44930U 20001S   26079.88263723  .00044197  00000+0  15471-2 0  9990,2 44930  53.1468 293.2285 0000677 356.9575   3.1421 15.29096372341586
STARLINK-1094,44941,53.1606,0.0001374,15.30208417,474.2482907684307,476.1315850109622,1 44941U 20001AD  26079.26445025  .00004413  00000+0  16100-3 0  9999,2 44941  53.1606 270.4429 0001374  86.3406 273.7752 15.30208417341850
STARLINK-1122,44949,53.1593,0.0001209,15.30211424,474.3523934854056,476.0095257680423,1 44949U 20001AM  26079.55207066  .00001883  00000+0  75670-4 0  9996,2 44949  53.1593 269.1544 0001209  87.2634 272.8506 15.30211424341899
STARLINK-1080,44961,53.0502,0.0004613,15.49074833,416.2955172687116,422.56695372277954,1 44961U 20001AZ  26079.71943903  .00083968  00000+0  15134-2 0  9996,2 44961  53.0502 235.4117 0004613 158.8120 201.3079 15.49074833342389
STARLINK-1090,44968,53.1534,0.0001132,15.29400471,476.82728901919927,478.3794286364373,1 44968U 20001BG  26079.78475370  .00013807  00000+0  48923-3 0  9996,2 44968  53.1534 254.9594 0001132 106.8226 253.2899 15.29400471342116
STARLINK-1132,45044,53.1564,0.0003501,15.44540197,430.3449630656705,435.1139317521456,1 45044U 20006A   26079.72645703  .00079616  00000+0  16797-2 0  9993,2 45044  53.1564 201.6036 0003501 263.4597  96.6011 15.44540197338632
STARLINK-1131,45047,53.1583,0.0001775,15.30179739,474.0590850503431,476.49204651119453,1 45047U 20006D   26079.70417676  .00005806  00000+0  20813-3 0  9995,2 45047  53.1583 229.8161 0001775  86.3010 273.8194 15.30179739338232
STARLINK-1134,45048,53.032,0.0005995,15.45361448,426.2345680257813,434.39790345543406,1 45048U 20006E   26079.56136328  .00038431  00000+0  79685-3 0  9993,2 45048  53.0320 186.5458 0005995 222.8716 137.1823 15.45361448338829
STARLINK-1156,45054,53.1598,0.000125,15.30187398,474.396023265911,476.10937069015563,1 45054U 20006L   26079.79583912  .00000361  00000+0  24324-4 0  9992,2 45054  53.1598 229.4064 0001250  72.7841 287.3297 15.30187398338248
STARLINK-1159,45057,53.0459,0.0001717,15.85305837,314.31442128354047,316.6130037682233,1 45057U 20006P   26079.91668981  .00093371  00000+0  38274-3 0  9990,2 45057  53.0459 178.1237 0001717   9.9961 291.5475 15.85305837  5933
STARLINK-1166,45060,53.051,0.0002,15.47131769,423.7608325653973,426.48213595910147,1 45060U 20006S   26079.82364014  .00090854  00000+0  17504-2 0  9999,2 45060  53.0510 219.5654 0002000 209.0312 151.0584 15.47131769338385
STARLINK-1169,45061,53.1589,0.0001194,15.30361674,473.9141498914987,475.55061510003816,1 45061U 20006T   26079.69762486  .00008404  00000+0  29410-3 0  9990,2 45061  53.1589 229.8603 0001194  12.8805 347.2226 15.30361674338239
STARLINK-1171,45062,53.0442,0.0002329,15.64835529,372.1393114685543,375.28432264754065,1 45062U 20006U   26079.82734079  .00050086  00000+0  50630-3 0  9994,2 45062  53.0442 194.8511 0002329   9.3747 350.7311 15.64835529338734
STARLINK-1133,45064,53.1586,0.0001181,15.30209252,474.3780671372715,475.9968223711212,1 45064U 20006W   26079.83426539  .00000400  00000+0  25615-4 0  9997,2 45064  53.1586 206.0323 0001181  85.9852 274.1284 15.30209252338587
STARLINK-1167,45071,53.1587,0.0001738,15.30003246,474.61138965004466,476.99381905651717,1 45071U 20006AD  26079.34372712  .00012424  00000+0  43348-3 0  9995,2 45071  53.1587 208.4048 0001738  71.8937 288.2253 15.30003246338501
STARLINK-1168,45072,53.1623,0.0001395,15.29380635,476.7062537521042,478.6190218510501,1 45072U 20006AE  26079.61670265 -.00002273  00000+0 -66414-4 0  9993,2 45072  53.1623 207.2232 0001395  90.9710 269.1450 15.29380635338544
STARLINK-1172,45074,53.1571,0.0001354,15.30868184,472.29304430230604,474.1483919723769,1 45074U 20006AG  26078.63361149  .00011708  00000+0  39855-3 0  9993,2 45074  53.1571 211.6109 0001354  79.7816 280.3337 15.30868184338391
STARLINK-1153,45080,53.1616,0.0001626,15.29997061,474.70662208578597,476.9355292519922,1 45080U 20006AN  26079.39344014  .00009058  00000+0  31955-3 0  9994,2 45080  53.1616 208.0956 0001626  21.9795 338.1275 15.29997061338517
STARLINK-1151,45081,53.0521,0.0002831,15.66696987,366.45272136953463,370.27258947443534,1 45081U 20006AP  26079.67621857  .00054476  00000+0  51048-3 0  9998,2 45081  53.0521 185.7872 0002831  22.6567 337.4572 15.66696987338846
STARLINK-1185,45087,53.1609,0.0001643,15.33671535,463.7449427373067,465.99355459061735,1 45087U 20006AV  26079.73211079  .00055828  00000+0  16896-2 0  9995,2 45087  53.1609 190.9051 0001643  32.6954 327.4149 15.33671535338786
STARLINK-1183,45088,53.1579,0.0001085,15.3019862,474.4756007070755,475.96277900027326,1 45088U 20006AW  26079.59506019  .00001802  00000+0  72935-4 0  9992,2 45088  53.1579 191.9258 0001085  84.8814 275.2311 15.30198620338751
STARLINK-1152,45096,53.0372,0.0002669,15.39939894,444.46545131737,448.10832878988003,1 45096U 20006BE  26079.70052137  .00060465  00000+0  14936-2 0  9996,2 45096  53.0372 154.4830 0002669 284.4882  75.5825 15.39939894339287
STARLINK-1184,45098,53.0538,0.0004292,15.10825949,530.7132359170892,536.6463394476359,1 45098U 20006BG  26079.71565323  .00026112  00000+0  15648-2 0  9997,2 45098  53.0538 195.6006 0004292 161.4272 198.6876 15.10825949338709
STARLINK-1193,45100,53.0505,0.0004773,15.58049702,390.0699777124246,396.5339933680207,1 45100U 20006BJ  26079.91668981  .00046639  00000+0  61283-3 0  9990,2 45100  53.0505 175.9915 0004773  12.4194 174.0402 15.58049702  5913
STARLINK-1143,45179,53.0455,0.0005983,15.65798113,366.9063977405258,374.9823485116085,1 45179U 20012B   26079.91668981  .00224953  00000+0  21227-2 0  9993,2 45179  53.0455 274.8699 0005983 147.4158  88.3524 15.65798113  5775
